STARLINK-5550           
1 56361U 23058AW  23128.91667824 -.00801977  00000+0 -90755-2 0  9999
2 56361  97.6659 128.5624 0001344  91.6205 245.4830 15.64851265  1301
STARLINK-5972           
1 56362U 23058AX  23128.91667824 -.00806754  00000+0 -91371-2 0  9993
2 56362  97.6648 128.5621 0001257  89.2681 247.5239 15.64846045  1307
2023-059A               
1 56367U 23059A   23129.17498662  .00000049  00000+0  00000+0 0  9997
2 56367   8.5993   7.8379 1877548 209.5933 138.3230  7.26267848   772
2023-059B               
1 56368U 23059B   23128.66151220  .00000054  00000+0  60270-2 0  9991
2 56368   8.1821   8.1410 1827344 207.7748 141.1643  7.15155120   713
VIASAT-3                
1 56370U 23060A   23128.70246647 -.00000131  00000+0  00000+0 0  9998
2 56370   0.0531  48.6014 0006108  69.2770 242.1963  1.03024682    71
2023-062A               
1 56442U 23062A   23128.82371366  .00000037  00000+0  00000+0 0  9994
2 56442  32.7392 144.5124 0008412 229.1246 305.9177 15.06486005   110
2023-062B               
1 56443U 23062B   23128.82341981  .00000038  00000+0  00000+0 0  9996
2 56443  32.7315 144.5188 0013991 229.3780 306.2964 15.07267573   104
OSCAR 7 (AO-7)          
1 07530U 74089B   23128.92435942 -.00000038  00000+0  49043-4 0  9992
2 07530 101.9460 115.3390 0012448 137.2738 280.3872 12.53663916218250
PHASE 3B (AO-10)        
1 14129U 83058B   23122.72837690 -.00000191  00000+0  00000+0 0  9993
2 14129  27.1283  44.0444 6036340 168.7945 215.5149  2.05868068271981
UOSAT 2 (UO-11)         
1 14781U 84021B   23128.90490191  .00002299  00000+0  27701-3 0  9996
2 14781  97.6552 107.3670 0007566 342.9579  17.1381 14.84775117 88310
LUSAT (LO-19)           
1 20442U 90005G   23128.72771744  .00000289  00000+0  12199-3 0  9994
2 20442  98.8416 104.4067 0010720 297.4367  62.5726 14.33243729739690
EYESAT A (AO-27)        
1 22825U 93061C   23128.89334768  .00000194  00000+0  92561-4 0  9992
2 22825  98.8446 171.1434 0008530 175.2708 184.8556 14.30294274544676
ITAMSAT (IO-26)         
1 22826U 93061D   23128.55698056  .00000219  00000+0  10131-3 0  9999
2 22826  98.8393 170.6656 0009325 163.0938 197.0557 14.30653487544897
RADIO ROSTO (RS-15)     
1 23439U 94085A   23128.88954971 -.00000039  00000+0  10000-3 0  9990
2 23439  64.8165 339.2571 0163760 216.9949 141.9591 11.27573784168185
JAS-2 (FO-29)           
1 24278U 96046B   23129.22328898 -.00000016  00000+0  17277-4 0  9992
2 24278  98.5267 113.0951 0350595 157.8131 203.8612 13.53143093319912
TECHSAT 1B (GO-32)      
1 25397U 98043D   23128.93916455  .00000170  00000+0  94262-4 0  9992
2 25397  98.8659  86.0639 0000419 189.8005 170.3165 14.23866748289966
ISS (ZARYA)             
1 25544U 98067A   23129.33311206  .00014447  00000+0  26005-3 0  9991
2 25544  51.6399 161.1075 0006170 327.2163 143.8663 15.50052739395762
PCSAT (NO-44)           
1 26931U 01043C   23128.91906042  .00000315  00000+0  15136-3 0  9993
2 26931  67.0506 298.2165 0007568 278.1617  81.8626 14.30904347128128
SAUDISAT 1C (SO-50)     
1 27607U 02058C   23128.83357998  .00001485  00000+0  22034-3 0  9996
2 27607  64.5561  25.5700 0072447 232.5365 126.9135 14.77195588 96412
CUTE-1 (CO-55)          
1 27844U 03031E   23128.93790160  .00000515  00000+0  24899-3 0  9998
2 27844  98.6790 136.7692 0008740 235.2348 124.8008 14.22753685 30151
CUBESAT XI-IV (CO-57)   
1 27848U 03031J   23128.51343138  .00000431  00000+0  21363-3 0  9995
2 27848  98.6827 136.7813 0008481 253.5274 106.4973 14.22267038 29915
MOZHAYETS 4 (RS-22)     
1 27939U 03042A   23129.20457507  .00001812  00000+0  32264-3 0  9997
2 27939  98.2371 275.8883 0011326 257.6332 102.3604 14.68282848 48823
CUBESAT XI-V            
1 28895U 05043F   23128.88328857  .00002679  00000+0  50213-3 0  9996
2 28895  98.1479 261.2602 0016212 191.7065 168.3764 14.65525048935059
CUTE-1.7+APD II (CO-65) 
1 32785U 08021C   23128.43106929  .00004982  00000+0  49640-3 0  9994
2 32785  97.7036  95.2540 0010809 230.7590 129.2670 14.91996608814898
DELFI-C3 (DO-64)        
1 32789U 08021G   23128.78327792  .00065451  00000+0  20692-2 0  9992
2 32789  97.3064 150.6504 0004625 235.7544 124.3261 15.32544551821340
SEEDS II (CO-66)        
1 32791U 08021J   23128.22035456  .00007265  00000+0  64739-3 0  9997
2 32791  97.6549 100.3174 0011887 175.5738 184.5591 14.96252029815682
YUBILEINY (RS-30)       
1 32953U 08025A   23129.09031668  .00000024  00000+0  10000-3 0  9996
2 32953  82.5049 341.4241 0018744 270.8020  89.0917 12.43122959678793
KKS-1 (KISEKI)          
1 33499U 09002H   23128.76504834  .00001868  00000+0  27267-3 0  9991
2 33499  98.1773  20.5719 0008845   3.4711 356.6559 14.76966842768249
SWISSCUBE               
1 35932U 09051B   23128.58421011  .00001485  00000+0  33636-3 0  9996
2 35932  98.5266 357.9954 0008482 122.5219 237.6800 14.57639876723448
BEESAT-1                
1 35933U 09051C   23128.68098173  .00001284  00000+0  29274-3 0  9997
2 35933  98.5194 359.4610 0006545 131.6094 228.5665 14.57559200723535
ITUPSAT1                
1 35935U 09051E   23128.69551325  .00001169  00000+0  27298-3 0  9999
2 35935  98.5295 359.4354 0008720 138.2097 221.9767 14.56614783723219
XIWANG-1 (HOPE-1)       
1 36122U 09072B   23128.94436107 -.00000005  00000+0  99542-4 0  9990
2 36122 100.2353  94.0640 0007033 317.6837  42.3733 13.16382275643734
JUGNU                   
1 37839U 11058B   23127.99967712  .00000613  00000+0  18311-3 0  9996
2 37839  19.9621   6.7546 0018973 135.7944 252.1622 14.12945767598096
SRMSAT                  
1 37841U 11058D   23128.56205003  .00000539  00000+0  15074-3 0  9991
2 37841  19.9716  89.5937 0011673 316.8818 198.9478 14.10885978597426
M-CUBED & EXP-1 PRIME   
1 37855U 11061F   23128.78329056  .00026487  00000+0  87046-3 0  9997
2 37855 101.7052  68.4519 0124016 160.2564 200.3521 15.24383450630554
STRAND-1                
1 39090U 13009E   23128.83286558  .00000513  00000+0  19277-3 0  9992
2 39090  98.3905 323.2721 0009509  29.1930 330.9786 14.35572150534072
SOMP                    
1 39134U 13015E   23128.90275790  .00114059  00000+0  16554-2 0  9997
2 39134  64.8519  60.2885 0016310 254.9224 105.0116 15.55071255556863
BEESAT-3                
1 39135U 13015F   23128.65922954  .00045519  00000+0  11223-2 0  9993
2 39135  64.8583 109.3939 0021221 245.8328 114.0591 15.40063531555847
BEESAT-2                
1 39136U 13015G   23128.37073244  .00042385  00000+0  11367-2 0  9999
2 39136  64.8676 121.3019 0026389 280.7151  79.1014 15.37386786555551
ZACUBE-1 (TSHEPISOSAT)  
1 39417U 13066B   23129.14689238  .00005308  00000+0  61539-3 0  9990
2 39417  97.6834  92.1973 0056737  56.9543 303.7104 14.84680401511409
GOMX-1                  
1 39430U 13066Q   23128.75927223  .00002356  00000+0  41404-3 0  9999
2 39430  97.7855  22.1954 0147377  97.9700 263.8272 14.61630584503787
CUBEBUG-2 (LO-74)       
1 39440U 13066AA  23128.86943424  .00004082  00000+0  53082-3 0  9996
2 39440  97.7705  78.9218 0076385 153.9375 206.5714 14.79157916508349
FUNCUBE-1 (AO-73)       
1 39444U 13066AE  23128.95166421  .00007364  00000+0  81928-3 0  9990
2 39444  97.6695  94.5226 0054785  43.7266 316.8269 14.86313103510408
UWE-3                   
1 39446U 13066AG  23129.13354233  .00004325  00000+0  53325-3 0  9997
2 39446  97.7326  85.3657 0067551 106.2639 254.6019 14.81775675509234
SPROUT                  
1 39770U 14029E   23128.97608881  .00022937  00000+0  18088-2 0  9994
2 39770  97.9735 255.1174 0007424  84.4162 275.8025 15.00727710486271
UNISAT-6                
1 40012U 14033C   23128.82543308  .00004462  00000+0  63013-3 0  9998
2 40012  97.6713 304.8279 0055860 182.6648 177.4273 14.76570899477964
DUCHIFAT-1              
1 40021U 14033M   23128.93648130  .00010237  00000+0  88401-3 0  9994
2 40021  98.0566  91.6575 0012732  49.5480 310.6849 14.97385407483319
QB50P1                  
1 40025U 14033R   23129.08097250  .00007013  00000+0  66950-3 0  9999
2 40025  97.9955  75.1596 0013145  67.3656 292.8952 14.93555480482811
ZDPS 2A                 
1 40901U 15049C   23128.83566456  .00046722  00000+0  11912-2 0  9998
2 40901  97.4468 143.4134 0005439 262.0303  98.0325 15.39372755423183
ZDPS 2B                 
1 40902U 15049D   23129.16219198  .00045128  00000+0  11095-2 0  9995
2 40902  97.4573 142.0713 0005275 257.4680 167.1594 15.40490417423222
KAITUO 1A               
1 40904U 15049F   23128.82746590  .00016445  00000+0  65368-3 0  9993
2 40904  97.4990 134.5593 0009740 323.5964 158.8615 15.25335266422302
2015-049G               
1 40905U 15049G   23128.83333628  .00007690  00000+0  35511-3 0  9998
2 40905  97.5238 131.4738 0012475 329.3972 153.3594 15.20422690421979
XW-2C                   
1 40906U 15049H   23129.15230605  .00013653  00000+0  54028-3 0  9996
2 40906  97.4953 136.1842 0009810 305.5602 119.4555 15.25528659422446
XW-2D                   
1 40907U 15049J   23129.15279361  .00016531  00000+0  61993-3 0  9996
2 40907  97.4938 136.6184 0008757 297.9344 126.5325 15.27281292422524
LILACSAT-2              
1 40908U 15049K   23129.18517657  .00007106  00000+0  33941-3 0  9993
2 40908  97.5257 132.3652 0013260 333.6711  93.1943 15.19275025421874
XW-2E                   
1 40909U 15049L   23129.14524407  .00031572  00000+0  89404-3 0  9990
2 40909  97.4552 142.4846 0006221 256.8665 171.3567 15.36204840423141
XW-2F                   
1 40910U 15049M   23129.12753164  .00031006  00000+0  89552-3 0  9990
2 40910  97.4646 141.6936 0007115 259.4973 173.4798 15.35583851422893
XW-2B                   
1 40911U 15049N   23128.89065142  .00016073  00000+0  60689-3 0  9993
2 40911  97.4909 136.8147 0008699 302.0000 174.6636 15.27061963422362
KAITUO 1B               
1 40912U 15049P   23129.16519140  .00040521  00000+0  97803-3 0  9990
2 40912  97.4196 146.2540 0007967 207.4092 218.2454 15.41057354423593
